ONEWEB-0258             
1 48976U 21060K   24202.89618633  .00000040  00000+0  70934-4 0  9997
2 48976  87.9112   7.4163 0001710  93.3565 266.7761 13.16597012147973
ONEWEB-0259             
1 48977U 21060L   24202.88984997 -.00000285  00000+0 -77953-3 0  9996
2 48977  87.9112   7.4023 0001523  91.1097 269.0208 13.16593979149294
ONEWEB-0260             
1 48978U 21060M   24202.88116186 -.00000001  00000+0 -35131-4 0  9993
2 48978  87.9113   7.4328 0002369  84.9837 275.1564 13.16596014147985
ONEWEB-0261             
1 48979U 21060N   24202.92628953  .00000024  00000+0  29196-4 0  9996
2 48979  87.9116   7.4185 0001763  72.1513 287.9810 13.16594419148047
ONEWEB-0262             
1 48980U 21060P   24202.90728995  .00000086  00000+0  19160-3 0  9990
2 48980  87.9113   7.3856 0001334  86.2524 273.8760 13.16594918148000
ONEWEB-0263             
1 48981U 21060Q   24202.93895603 -.00000029  00000+0 -10934-3 0  9994
2 48981  87.9117   7.3965 0001566  76.4612 283.6694 13.16593770147977
ONEWEB-0264             
1 48982U 21060R   24202.90016555  .00000058  00000+0  11783-3 0  9996
2 48982  87.9114   7.4153 0001773  90.2441 269.8893 13.16595881147971
ONEWEB-0266             
1 48984U 21060T   24202.92153971  .00000076  00000+0  16509-3 0  9995
2 48984  87.9112   7.3879 0001735  94.5759 265.5570 13.16593997147962
